MALLIGYONG-1            
1 58400U 23179A   24098.97156778  .00005243  00000+0  23394-3 0  9999
2 58400  97.4138 346.8722 0010719 140.6951 219.5065 15.21767957 21042
